{
  "norad_id": 54377,
  "name": "COSMOS 2564 [GLONASS-M]",
  "history": [
    {
      "epoch": "2026-04-22T20:50:36.067200Z",
      "apogee_km": 19157.819741441803,
      "perigee_km": 19101.976020997743,
      "latitude_deg": -1.5538714923847827e-05,
      "longitude_deg": 30.97194159683818,
      "height_km": 19152.10430880722,
      "semi_major_axis_km": 25508.03488121977,
      "eccentricity": 0.00109463,
      "inclination_deg": 64.739,
      "raan_deg": 194.5471,
      "arg_perigee_deg": 219.1859,
      "mean_anomaly_deg": 140.7867,
      "mean_motion_rev_day": 2.13101869
    },
    {
      "epoch": "2026-04-22T20:50:36.068064Z",
      "apogee_km": 19157.819741441803,
      "perigee_km": 19101.976020997743,
      "latitude_deg": 7.490836758044232e-05,
      "longitude_deg": 30.971980561554282,
      "height_km": 19152.104327820347,
      "semi_major_axis_km": 25508.03488121977,
      "eccentricity": 0.00109463,
      "inclination_deg": 64.739,
      "raan_deg": 194.5471,
      "arg_perigee_deg": 219.1859,
      "mean_anomaly_deg": 140.7868,
      "mean_motion_rev_day": 2.13101869
    },
    {
      "epoch": "2026-04-25T05:09:15.538752Z",
      "apogee_km": 19157.951846485143,
      "perigee_km": 19101.834180455506,
      "latitude_deg": 5.316372904749302e-05,
      "longitude_deg": -96.08293302960807,
      "height_km": 19152.11684870266,
      "semi_major_axis_km": 25508.03001347032,
      "eccentricity": 0.0011,
      "inclination_deg": 64.739,
      "raan_deg": 194.4694,
      "arg_perigee_deg": 219.468,
      "mean_anomaly_deg": 140.4982,
      "mean_motion_rev_day": 2.1310193
    },
    {
      "epoch": "2026-04-26T03:40:43.656384Z",
      "apogee_km": 19158.008327164338,
      "perigee_km": 19101.774348212202,
      "latitude_deg": 5.099632795388429e-05,
      "longitude_deg": -74.9064635845284,
      "height_km": 19152.12164355078,
      "semi_major_axis_km": 25508.02833768827,
      "eccentricity": 0.00110228,
      "inclination_deg": 64.739,
      "raan_deg": 194.4383,
      "arg_perigee_deg": 219.5915,
      "mean_anomaly_deg": 140.3749,
      "mean_motion_rev_day": 2.13101951
    },
    {
      "epoch": "2026-04-27T02:12:12.015936Z",
      "apogee_km": 19158.0853123591,
      "perigee_km": 19101.696245829524,
      "latitude_deg": 7.22449431195085e-05,
      "longitude_deg": -53.73109576455512,
      "height_km": 19152.1347671891,
      "semi_major_axis_km": 25508.02777909431,
      "eccentricity": 0.00110532,
      "inclination_deg": 64.739,
      "raan_deg": 194.4071,
      "arg_perigee_deg": 219.74,
      "mean_anomaly_deg": 140.2284,
      "mean_motion_rev_day": 2.13101958
    },
    {
      "epoch": "2026-04-28T11:59:24.842976Z",
      "apogee_km": 19158.203251950392,
      "perigee_km": 19101.575433469578,
      "latitude_deg": 1.9491864928666554e-05,
      "longitude_deg": 158.03094168794678,
      "height_km": 19152.152115464633,
      "semi_major_axis_km": 25508.026342709985,
      "eccentricity": 0.00111,
      "inclination_deg": 64.739,
      "raan_deg": 194.3604,
      "arg_perigee_deg": 219.975,
      "mean_anomaly_deg": 139.999,
      "mean_motion_rev_day": 2.13101976
    },
    {
      "epoch": "2026-04-29T10:30:53.434080Z",
      "apogee_km": 19158.254102618557,
      "perigee_km": 19101.519156461734,
      "latitude_deg": 7.723492966809773e-05,
      "longitude_deg": 179.20568576674043,
      "height_km": 19152.167300219797,
      "semi_major_axis_km": 25508.023629540145,
      "eccentricity": 0.0011121,
      "inclination_deg": 64.7389,
      "raan_deg": 194.3293,
      "arg_perigee_deg": 220.0513,
      "mean_anomaly_deg": 139.9277,
      "mean_motion_rev_day": 2.1310201
    },
    {
      "epoch": "2026-04-30T09:02:22.075296Z",
      "apogee_km": 19158.34256640416,
      "perigee_km": 19101.429575488728,
      "latitude_deg": 1.0846412179751824e-05,
      "longitude_deg": -159.61971028674185,
      "height_km": 19152.181724946073,
      "semi_major_axis_km": 25508.023070946445,
      "eccentricity": 0.00111559,
      "inclination_deg": 64.7389,
      "raan_deg": 194.2982,
      "arg_perigee_deg": 220.2205,
      "mean_anomaly_deg": 139.7631,
      "mean_motion_rev_day": 2.13102017
    },
    {
      "epoch": "2026-05-01T07:33:50.579136Z",
      "apogee_km": 19158.4531058188,
      "perigee_km": 19101.313609736157,
      "latitude_deg": -1.6371616159505785e-05,
      "longitude_deg": -138.44449780273948,
      "height_km": 19152.193809445318,
      "semi_major_axis_km": 25508.020357777477,
      "eccentricity": 0.00112003,
      "inclination_deg": 64.7389,
      "raan_deg": 194.267,
      "arg_perigee_deg": 220.445,
      "mean_anomaly_deg": 139.5425,
      "mean_motion_rev_day": 2.13102051
    },
    {
      "epoch": "2026-05-03T15:52:31.477152Z",
      "apogee_km": 19158.590003999245,
      "perigee_km": 19101.176551957567,
      "latitude_deg": -8.383035172831755e-05,
      "longitude_deg": 94.49554924050734,
      "height_km": 19152.21437481013,
      "semi_major_axis_km": 25508.020277978405,
      "eccentricity": 0.0011254,
      "inclination_deg": 64.739,
      "raan_deg": 194.1892,
      "arg_perigee_deg": 220.7029,
      "mean_anomaly_deg": 139.2904,
      "mean_motion_rev_day": 2.13102052
    },
    {
      "epoch": "2026-05-03T15:52:31.498752Z",
      "apogee_km": 19158.611879243283,
      "perigee_km": 19101.156591891442,
      "latitude_deg": 4.019173474918671e-05,
      "longitude_deg": 94.49551738393895,
      "height_km": 19152.216682394886,
      "semi_major_axis_km": 25508.02123556736,
      "eccentricity": 0.00112622,
      "inclination_deg": 64.739,
      "raan_deg": 194.1892,
      "arg_perigee_deg": 220.7473,
      "mean_anomaly_deg": 139.246,
      "mean_motion_rev_day": 2.1310204
    },
    {
      "epoch": "2026-05-05T01:39:43.582752Z",
      "apogee_km": 19158.670849010723,
      "perigee_km": 19101.096185740545,
      "latitude_deg": -8.631273809514903e-06,
      "longitude_deg": -53.738568820919895,
      "height_km": 19152.224469019548,
      "semi_major_axis_km": 25508.020517375633,
      "eccentricity": 0.00112856,
      "inclination_deg": 64.739,
      "raan_deg": 194.1425,
      "arg_perigee_deg": 220.8565,
      "mean_anomaly_deg": 139.1366,
      "mean_motion_rev_day": 2.13102049
    },
    {
      "epoch": "2026-05-06T11:26:55.445568Z",
      "apogee_km": 19158.793195039332,
      "perigee_km": 19100.976712478943,
      "latitude_deg": -1.9043258177357786e-05,
      "longitude_deg": 158.0282367605819,
      "height_km": 19152.238355931288,
      "semi_major_axis_km": 25508.021953759137,
      "eccentricity": 0.0011333,
      "inclination_deg": 64.739,
      "raan_deg": 194.0959,
      "arg_perigee_deg": 221.0908,
      "mean_anomaly_deg": 138.8996,
      "mean_motion_rev_day": 2.13102031
    }
  ]
}